RSN,Mag,Rrup,Vs30,Z2_5,Ia,CAV,PGV,PGA,PGD,Tm,D595
20076,4.2,58.47,364.45,1077.5,6.25127648750837e-08,0.0052442720863378,4.87687390090331e-05,0.0001235387,3.72580441499777e-05,0.214493537441944,2.495
20077,4.2,48.36,287.46,997.5,2.14597439437662e-09,0.000892926032888779,8.15630893051226e-06,3.031627e-05,4.20633096487093e-06,0.137114239536743,2.46
20078,4.2,79.2,468.52,2470.3,1.59180266555854e-07,0.00487353519909178,6.95619830274633e-05,0.0001884528,1.70697117162801e-05,0.179466140358731,2.55
20079,4.2,12.54,261.91,842,2.78728956580032e-05,0.103622379620081,0.00144889594442683,0.0021480515,0.000325498815038879,0.306153896330831,2.32
20080,4.2,72.71,336.38,866.1,1.39666793988733e-09,0.00150804881333868,1.10441295095833e-05,1.635396e-05,1.48492728497789e-05,0.17872833347017,2.71
20081,4.2,52.17,266.31,1267.7,2.62844194890811e-08,0.0153121270894683,0.000100304052425676,5.382741e-05,0.000135508952821544,0.452020037127219,2.52
20082,4.2,61.26,275.34,1445,1.49400350679416e-09,0.00166342643633915,1.27992307890593e-05,1.559283e-05,1.46484703549534e-05,0.171327282412011,2.615
20083,4.2,52.39,273.32,1026,1.0503478354199e-09,0.00349688057984122,2.50485452392752e-05,1.3624205e-05,3.18401724249066e-05,0.517967761311938,2.74
20084,4.2,37.07,284.38,3331.7,1.12413661965012e-07,0.00730932048849955,0.000111987920812211,0.0001552918,6.1207380782448e-05,0.279027409988669,2.355
20085,4.2,27.11,518.85,2720.2,3.57190305419528e-07,0.00959238748475451,9.72927310386378e-05,0.0002476212,3.48556686500079e-05,0.189919081572493,2.585
20086,4.2,68.54,526.07,844.8,7.15135290458929e-08,0.00302493782285952,3.68707282697816e-05,0.0001114171,1.24572629092394e-05,0.1572121351436,2.35
20087,4.2,32.14,288.37,3402.1,3.08313521102991e-08,0.00431793042900658,4.90395898349635e-05,0.00012378815,4.00937649048686e-05,0.159287762777146,0.39
20090,4.2,51.37,519,908.5,4.89432921705386e-09,0.000995384350632479,1.18413660972764e-05,3.436013e-05,6.52476598328631e-06,0.193526862197189,1.965
20091,4.2,59.83,471,2437,7.48335698377526e-10,0.0016918883676835,1.30762095353569e-05,2.0433285e-05,1.64446438125457e-05,0.453336123217724,2.295
20092,4.2,28.55,422,3468.5,2.92008118810496e-06,0.0235935292648605,0.000350438472681942,0.0007681233,0.00010667860760279,0.223786889020533,2.46
20096,4.2,53.75,584,820,7.43734105903352e-08,0.00300680579748674,3.2757140030609e-05,0.000109392755,8.89296141094246e-06,0.165003854120479,2.495
20099,4.2,65.27,504.27,1041,4.48464244079304e-07,0.00994563850309157,9.10101129009006e-05,0.00031223885,2.64249247677776e-05,0.23003282992616,2.49
20100,4.2,68.53,690.97,792.5,1.25339673380942e-07,0.00278269121705915,3.91067428549978e-05,0.00014283115,1.27402615445581e-05,0.125971737570843,2.14
20102,4.2,58.66,376,824.9,3.70250650698614e-08,0.00225276892080902,2.35311966369799e-05,7.9638275e-05,7.62420455520214e-06,0.204840700869694,2.075
20113,4.2,59.29,760,867.6,5.44014765269047e-08,0.00509273060904261,4.82780190625105e-05,9.5188855e-05,4.68240465190098e-05,0.188427551511122,2.69
20115,4.2,51.07,403.94,3559,3.4686260955266e-09,0.00491137073383637,3.18121596118058e-05,3.032434e-05,4.89113012190305e-05,0.239799724409132,2.575
20117,4.2,68.89,664.57,855.3,2.09324213404508e-07,0.00725424830259967,8.69329413623036e-05,0.0002013945,2.46844811901849e-05,0.248224926355648,2.305
20173,3.4,36.02,274.67,2129.2,8.55107993605438e-07,0.0150154274846345,9.62953257610173e-05,0.00042388675,4.0160239413626e-05,0.126319511252939,2.5025
20174,3.4,73,600,840.2,7.48853822341192e-09,0.00079606534904905,9.80674149065089e-06,4.2919245e-05,3.96493151238885e-06,0.131640930413971,2.325
20180,3.4,53.6,646,1589.9,2.93387730687235e-08,0.00255319153567543,3.21191178566746e-05,8.8089465e-05,1.26479277302902e-05,0.206487911905628,2.38
20183,3.4,73.22,433.15,1069.3,8.76005194602433e-09,0.00155085955960178,1.88820153739351e-05,4.829518e-05,6.89386501901411e-06,0.215907483019279,2.47
20184,3.4,66.34,323,726.8,5.0064427827878e-08,0.00182737711267648,3.49789519893336e-05,0.00012546535,9.6135593310825e-06,0.123326396375218,2.38
20195,3.4,56.49,308,260,4.32816064056845e-11,0.000582300428296223,4.99582504981733e-06,2.7623585e-06,4.49804811942544e-06,0.587669997080873,2.695
20199,3.56,37.32,527.95,320,1.68731469861658e-09,0.00233182985753217,1.5860298276046e-05,1.7656995e-05,2.82039902166096e-05,0.271129624514639,2.725
20211,3.56,58.96,308,260,4.50198562010118e-09,0.000964495525491622,1.12479284630617e-05,2.837361e-05,5.39983236480438e-06,0.208964135903287,2.155
20212,3.56,39.13,560,280,2.90581619742042e-07,0.00573659392540143,7.32662444895516e-05,0.000255321,1.40353442555645e-05,0.158829771647142,1.975
20245,3.8,60.25,600,840.2,1.24606849904964e-10,0.000336913368087569,3.32714226677048e-06,5.3986385e-06,2.89047362044736e-06,0.23838113338657,2.62
20254,3.8,53.47,323,726.8,7.23565609026385e-10,0.000926002507376837,7.82771151807976e-06,1.3200438e-05,4.74469552044546e-06,0.327928920952155,2.785
20257,3.8,74.45,760,733.1,2.01442383420712e-10,0.000359483180164298,5.36469146020961e-06,7.5166405e-06,2.05178597526358e-06,0.333154083614946,2.675
20295,3.7,39.56,527.95,320,4.90270594723159e-08,0.00228731153299117,2.87402878027589e-05,0.00011180705,2.92767099772785e-06,0.216205601480561,2.53125
20319,3.75,60.42,463.82,860.1,6.67577706029161e-10,0.000591863006526964,4.59574222600051e-06,1.205827e-05,5.88609721733902e-06,0.197954909764519,2.73
20328,3.75,78.88,584,820,1.79890516705134e-10,0.000446766656075018,4.21319876216678e-06,9.108266e-06,3.0430029871136e-06,0.383128028016153,2.33
20329,3.75,58.56,560.63,3371.6,5.41244673817661e-09,0.00109027171759268,1.50651415772209e-05,4.197535e-05,4.94951134549703e-06,0.19069731973877,1.995
20341,4,42.6,268.81,849.4,3.63201938655599e-06,0.025544475093274,0.000257779859145664,0.00104038415,0.000166224694440912,0.134622670818006,2.505
20342,4,51.25,463.82,860.1,4.54354916121078e-07,0.00611117158132713,7.64428749875993e-05,0.00026931115,2.11263242469461e-05,0.139359221266305,2.505
20369,4.12,25.36,395.54,849.6,5.75839330933606e-06,0.0328999213617791,0.000396249270314138,0.0009947217,0.000109845148832698,0.223464211361811,2.43
20371,4.12,79.9,238.66,842,7.06990444608449e-07,0.0161162252961263,0.000162763922940188,0.00032114995,0.000126757454625979,0.24813530798936,2.515
20372,4.12,79.38,338.41,873.7,4.04887850399802e-06,0.0299600961431376,0.000312029304060783,0.00072837935,0.000124731883623466,0.256342765755623,2.335
20385,4.12,59.82,760,848.1,5.30177987827492e-07,0.00980200082146419,0.000117086035379712,0.0002838498,5.84057480851185e-05,0.198052979739098,2.475
20390,3.5,72.61,463.82,860.1,1.52779187919112e-09,0.00021649782235566,2.39935015174957e-06,1.8959245e-05,1.21985997973831e-06,0.0978040228653924,2.565
20394,3.5,48.54,600,840.2,1.72704366164542e-10,0.000753125169501813,6.2855533092703e-06,5.897977e-06,7.11276516391378e-06,0.412557789837266,2.745
20402,3.5,79.08,507.06,695.6,2.88518917707395e-09,0.000473757059034711,7.38283306393105e-06,2.703769e-05,2.57576406631841e-06,0.119651165761168,2.615
20407,3.5,16.86,268.81,849.4,8.44170305528898e-07,0.00981146874274769,0.000268399202601404,0.00037201529,3.40777570555079e-05,0.22079247956431,2.455
20418,3.5,29.33,242.8,849.5,1.33924927886347e-07,0.00732789501118458,8.81021194001004e-05,0.000176056,4.49027717511301e-05,0.284925818695889,2.47
20419,3.5,26.93,238.66,842,6.71064015392411e-07,0.00781566083091443,0.000289632798815657,0.00052426575,1.90581790629726e-05,0.312187547547784,1.83
20420,3.5,35.49,326.07,881.1,7.61052482290932e-09,0.0010436129492736,9.43556096053584e-06,3.7809745e-05,8.03203783983796e-06,0.106904128220623,2.415
20421,3.5,33.47,338.41,873.7,4.81785189011582e-09,0.00156479219089561,1.09286418330599e-05,3.3796265e-05,1.52179554124275e-05,0.114997619862383,2.755
20422,3.5,35.99,344.76,879.6,1.57265470986695e-08,0.00168641758321193,1.70930027944719e-05,4.3591125e-05,1.51761573543012e-05,0.134954463838696,2.75
20423,3.5,43.42,344.93,849.4,2.82734788798393e-10,0.000727234133379251,6.06204358416317e-06,7.1288625e-06,6.18745665895827e-06,0.305690094350033,2.795
20424,3.5,28.26,239.65,842,6.09592818184492e-08,0.00508165751897987,6.0869933990638e-05,0.00011193674,4.34885969590225e-05,0.210816988093996,2.725
20425,3.5,64.93,357.28,3344.2,2.11606756735421e-10,0.000436000007330347,4.72896518681161e-06,6.531851e-06,1.92123183755136e-06,0.332877929440371,2.55
20426,3.5,57,366.11,3319.7,6.01730685478472e-10,0.000807532314279774,7.23024701104716e-06,1.2323365e-05,5.03706731585725e-06,0.284373154280264,2.77
20427,3.5,35.79,256.15,842,5.18723600858906e-08,0.00370808188557909,3.72247751486147e-05,9.182433e-05,2.73706518232583e-05,0.205363701484496,2.515
20428,3.5,42.26,347.55,3547.6,5.05837070616995e-10,0.000993697006778574,9.97297252507263e-06,1.66495565e-05,8.16360090395286e-06,0.495071445049367,2.64
20429,3.5,34.52,688.28,850.9,2.615508509771e-07,0.00399923559500644,4.87764981305408e-05,0.00015832928,5.32835028642658e-06,0.225961216000368,2.825
20430,3.5,14,299.37,849.6,3.11000247738346e-05,0.0558217107756818,0.00103361031425301,0.0034766265,4.95922329279941e-05,0.19636241624672,2.205
20431,3.5,29.37,264.86,842,1.16675931788402e-07,0.00349005963226509,7.91917965579583e-05,0.00018140065,1.6203937615016e-05,0.182207569537023,1.82
20432,3.5,33.62,311.84,843.4,7.26551843184395e-09,0.00103931635522077,1.02077334723373e-05,4.1593505e-05,7.59346255940383e-06,0.103959290177982,2.77
20433,3.5,17.36,258.1,842,6.16238245634151e-07,0.00730869084073426,0.000277807815443777,0.00047882275,2.42681873675731e-05,0.239090096994316,2.65
20434,3.5,15.25,354.81,856.9,6.10025616800199e-06,0.0269736900993726,0.000718690109751017,0.001599096,0.000124395758686019,0.236797231816285,1.98
20435,3.5,16.76,285.93,849.6,2.79192902966476e-07,0.00515665968815467,0.000206986850495083,0.00029475875,3.05020286504342e-05,0.245574285077386,1.97
20436,3.5,60.1,363.45,3018.9,3.72528575165811e-10,0.00074423693110588,6.73704834332052e-06,8.8563855e-06,6.39975351570539e-06,0.261316287976846,2.705
20437,3.5,32.05,341.13,3394.1,1.66744790238239e-08,0.00244041994637935,2.84744021090979e-05,5.288089e-05,1.83909873921421e-05,0.351284602894055,2.255
20438,3.5,65.46,385.47,3323.7,8.90546141608685e-08,0.00306703213858182,3.62669630769129e-05,0.000128266055,1.35242322272985e-05,0.175622549797938,2.015
20440,3.5,43.97,723.35,796.1,2.37437725219016e-08,0.0014667209508072,1.64100004732024e-05,8.2312645e-05,9.66666351736825e-06,0.128090423531824,2.375
20441,3.5,70.1,376,824.9,1.83959854504925e-10,0.000756415953417585,5.84875987132029e-06,9.0596395e-06,7.33688582754579e-06,0.327986454262795,2.855
20443,3.5,59.07,652.29,878.3,2.32659273571514e-10,0.000721169742889919,8.30040742897671e-06,7.087299e-06,5.41116607630707e-06,0.538009127308455,2.53
20445,3.5,40.04,403.94,3559,3.73516631972561e-09,0.000921107743207429,1.61403842802353e-05,2.523077e-05,4.35278086066726e-06,0.220864353369802,2.545
20446,3.5,58.9,404.73,725.6,1.0038431151367e-07,0.00319429698703388,4.6186264279314e-05,0.00016079695,7.47916519168345e-06,0.169084207996695,2.05
20463,3.71,50.34,463.82,860.1,1.29911080715911e-07,0.00354507879337649,4.34724394207111e-05,0.00016358935,2.06087482811305e-05,0.136746461493917,2.435
20477,3.71,61.94,326.07,881.1,2.87711242094889e-08,0.0019710829102526,1.97943654590465e-05,6.8632905e-05,1.74619043115973e-05,0.123346853491504,2.695
20478,3.71,60.6,338.41,873.7,6.50342589204885e-08,0.00142913909211724,2.09309052639946e-05,0.00015797325,2.43785959903546e-06,0.115109742615959,2.08
20479,3.71,63.24,344.76,879.6,1.19838318355135e-08,0.00118263488046415,1.42504288992947e-05,6.397075e-05,1.0090269792776e-05,0.117150917844785,2.27
20480,3.71,48.83,339.94,1813.91121562236,1.87056654682175e-07,0.00376164185319717,4.58726869918981e-05,0.00019740805,1.68321699343391e-05,0.135550326516436,2.665
20481,3.71,50.79,347.55,2802.2,3.58924736981256e-07,0.00534727777380305,7.58653863373204e-05,0.00028284935,3.05556752200268e-05,0.134174478681558,2.535
20482,3.71,53.5,339.94,851,3.57655562581304e-08,0.00209271161621114,3.25377297283574e-05,8.847931e-05,1.12720356866864e-05,0.178768663037547,1.675
20483,3.71,49.38,282.81,894.7,6.45714511144458e-08,0.00248376519071819,3.00126013769308e-05,8.4247315e-05,1.25613837914963e-05,0.148017663599286,2.665
20484,3.71,48.36,337.58,1393.6,3.70967954894917e-07,0.0044797801948558,7.29789611380448e-05,0.00027979225,1.48652924245904e-05,0.139299893278934,1.9
20485,3.71,48.21,272.63,894.7,1.93039640234888e-07,0.00588456643917251,5.59022614154846e-05,0.0001866023,1.15651746147803e-05,0.208505189912531,2.29
20486,3.71,37.95,263.76,2797.4,2.30958139644304e-07,0.00532961624925652,7.80041826173467e-05,0.0002319905,1.28992213940944e-05,0.197635788469822,1.83
20487,3.71,53.26,253.28,842,5.84275371337981e-08,0.00478204182821969,4.50904939161686e-05,0.0001113563,3.88402962297629e-05,0.225271252712277,2.755
20488,3.71,44.82,286.85,872.2,8.16733092166356e-08,0.00226239879779076,5.03593548361197e-05,0.00023874655,1.2486355442944e-05,0.158963082071332,0.64
20489,3.71,41.02,357.28,3344.2,1.25096802425885e-08,0.000950142582283525,1.67005379774407e-05,6.4098685e-05,4.29616376039991e-06,0.146136951191082,1
20490,3.71,63.78,366.11,3319.7,1.31280018302425e-07,0.00461664784831112,4.66258958471904e-05,0.00017434215,3.06024296979093e-05,0.163992828459006,2.165
20491,3.71,44.25,285.93,849.6,7.2875524307511e-09,0.000766306719838742,1.03712186061211e-05,4.7823795e-05,2.22452154639235e-06,0.140696360714771,2.705
20492,3.71,37.49,363.45,3018.9,2.78720715895049e-07,0.00773688742482833,7.83420493400835e-05,0.0002596173,6.03867709465436e-05,0.166847849961074,2.52
20493,3.71,19.25,341.13,3394.1,4.90009333849234e-06,0.0249909959944333,0.000291975001849307,0.001076159,5.07753100232144e-05,0.193738380133002,2.22
20494,3.71,44.9,414.77,873.6,6.47797259374877e-08,0.0025486053724059,3.43175583065456e-05,0.0001202546,5.0673481441087e-06,0.179706678199981,2.36
20495,3.71,47.35,287.46,997.5,2.11765283402678e-07,0.00502864121429195,5.86779102150996e-05,0.0002118042,2.47579493398932e-05,0.170713966617752,1.815
20512,3.67,68.45,347.55,2802.2,1.86769391803527e-10,0.000962472506511395,6.77360081029672e-06,5.9479125e-06,8.6095096103758e-06,0.500387604379286,2.84
20513,3.67,68.04,337.58,1393.6,2.45923689207191e-09,0.000776460721066798,9.39721413599546e-06,1.971254e-05,4.63350351238088e-06,0.1974419203828,2.765
20514,3.67,62.72,272.63,894.7,1.936234303258e-09,0.000715634617313199,7.14404112412371e-06,2.131459e-05,4.69236290463253e-06,0.152110197200335,2.67
20515,3.67,76.24,263.76,2797.4,1.80576253612032e-09,0.000935129639454788,8.19486824927133e-06,1.778988e-05,5.40019350903881e-06,0.184697895448129,2.765
20518,3.67,52.42,336.38,866.1,2.84986197850486e-09,0.000779756279833478,7.10806684276665e-06,3.155792e-05,5.69925592523832e-06,0.1123448677965,2.68
20519,3.67,64.67,275.34,1445,5.08237396200638e-10,0.00100419172109502,8.00122061237307e-06,9.719615e-06,8.48969928091984e-06,0.291922438707789,2.62
20524,3.67,79.78,584,820,1.23680743993325e-10,0.000618224264964144,6.04420814630453e-06,4.2932435e-06,3.71160748805749e-06,0.576302642367178,2.695
20543,3.68,65.94,287.46,849.5,1.43461821365665e-07,0.00229788022251788,3.8452037609211e-05,0.00019193475,1.06479793563433e-05,0.0938846882665022,2.615
20545,3.68,50.58,347.55,2802.2,2.29338479579797e-07,0.00420177527741622,5.54871751012402e-05,0.00022719825,2.50564897854523e-05,0.131694679327218,2.475
20546,3.68,43.65,339.94,851,7.11572188203402e-08,0.00184013965836112,2.39935562302662e-05,0.00011181606,1.13924335981813e-05,0.113409890717763,2.145
20547,3.68,46.26,282.81,894.7,1.40901693037137e-06,0.0117729818678284,0.000144712958785421,0.0004653878,2.91303776353984e-05,0.169586401221394,2.45
20548,3.68,49.84,337.58,1393.6,1.3916870212988e-06,0.00890395954282924,0.000130591273238766,0.000555542,2.79172693507197e-05,0.129931083223245,1.79
20549,3.68,44.09,272.63,894.7,2.04942285856786e-06,0.0160775518266496,0.000215648977545245,0.00069205225,5.0330789425122e-05,0.172262342114772,2.215
20551,3.68,57.58,263.76,2797.4,4.90243271656149e-07,0.0051126400601523,8.11130167185938e-05,0.0003108227,1.54058368223666e-05,0.123367405741697,2.41
20554,3.68,60.7,260.78,842,4.969945053156e-07,0.00633421033405181,7.30529930650539e-05,0.00031392765,2.01201393514746e-05,0.142698435324734,2.18
20555,3.68,62.88,286.85,872.2,3.19634308138488e-07,0.00594794887195741,7.42971957710158e-05,0.00025091845,3.75852440328999e-05,0.154097889298632,2.245
20556,3.68,50.64,357.28,3344.2,5.98372900530597e-08,0.00275825948014139,3.9039441059531e-05,8.8424945e-05,1.04103726958932e-05,0.267170620175706,2.075
20566,3.68,55.46,363.45,3018.9,2.20469703614847e-07,0.00402173946913186,4.36207937746723e-05,0.00015607615,2.19451996566955e-05,0.16702555169055,2.465
20570,3.68,62.29,287.46,997.5,1.76538784223453e-07,0.0034328017141258,4.1770580915459e-05,0.0001915438,7.55667464477373e-06,0.130491538121909,2.425
20571,3.68,33.7,336.38,866.1,5.21702751544637e-06,0.0208766148576638,0.000227992310449842,0.001086701,5.83865818310894e-05,0.144151587268237,2.495
20572,3.68,54.15,266.31,1267.7,2.50663747526636e-07,0.00479883945149274,8.15721658711144e-05,0.0002920406,1.69663219593623e-05,0.173310462267377,1.56
20573,3.68,46.62,275.34,1445,2.64688183589965e-07,0.00375539147579277,5.40139683438496e-05,0.00024071955,1.44231540074505e-05,0.139854984150516,1.545
20574,3.68,55.2,273.32,1026,1.01920841426016e-06,0.00945943925477604,0.000105331517929219,0.00042972595,4.46701761771296e-05,0.138864991894079,2.485
20583,3.68,63,584,820,5.76612806629116e-08,0.00192954853421761,2.59613017181408e-05,0.00012815905,3.50212211544233e-06,0.137250761723598,2.025
20596,3.57,41.35,337.58,1393.6,1.69569220161624e-08,0.00180838674444581,1.73153965493361e-05,6.097655e-05,1.74112675562407e-05,0.115330726024714,2.67
20597,3.57,45.57,260.78,842,4.14213837854161e-09,0.00142346746405009,1.37957200553057e-05,3.15105e-05,1.19671186445391e-05,0.148437407712136,2.6
20598,3.57,41.57,286.85,872.2,1.33572155941111e-09,0.00178811896378723,1.34308629412725e-05,1.4516585e-05,1.68750398531787e-05,0.236535926239995,2.745
20599,3.57,44.63,366.11,3319.7,1.77542455659877e-08,0.00153370338150773,2.10036218095942e-05,6.815452e-05,6.24211154028965e-06,0.162451996890348,2.2
20600,3.57,73.31,407.62,881.1,1.38759994039335e-08,0.000886098314100313,8.40776119854196e-06,3.9098925e-05,5.55582142180779e-06,0.109975603076365,2.715
20601,3.57,74.45,387.23,873.5,3.93062479275155e-09,0.00058734136498636,4.97701714350391e-06,2.6427815e-05,5.57416541419899e-06,0.0884032166642584,2.565
20602,3.57,49.28,336.38,866.1,3.04316818757119e-09,0.00144609733667407,9.11768581657458e-06,2.694904e-05,1.41146849500592e-05,0.123115546587921,2.615
20603,3.57,39.52,275.34,1445,4.82737735259958e-09,0.00100867225295653,1.09758920021627e-05,3.616612e-05,4.20250647182046e-06,0.134837441096507,2.79
20606,3.57,77.05,501.27,3473.8,8.10340878961626e-09,0.0010516761717404,1.55157867008852e-05,3.9235375e-05,4.736211444227e-06,0.182861875669979,2.43
20608,3.57,42.52,433.15,1069.3,1.81670545646907e-07,0.00690385838525195,6.6427066195393e-05,0.00020321035,5.2458942299477e-05,0.161817714342194,2.52
20609,3.57,58.53,723.35,796.1,7.12078821844103e-09,0.000594790303633848,6.97476683657862e-06,3.687352e-05,2.42595825094869e-06,0.110747481101939,2.055
20610,3.57,60.87,535.12,666.8,1.0136183015297e-09,0.000373729320512432,4.66879890077126e-06,1.381778e-05,2.34648821165385e-06,0.182320699973647,2.175
20693,4.18,46.35,686.73,879,7.74245171499709e-06,0.0293638652285244,0.000328473352965361,0.00117622505,0.000181808556247319,0.150373501199862,2.475
20696,4.18,69.94,643.8,726,2.91223132997563e-07,0.00640607512522226,0.000101046875754985,0.0002688276,1.82779552653668e-05,0.24779494619534,2.21875
20712,4.18,53.84,287.46,849.5,2.0027188736123e-08,0.00340144021950505,3.73137623333283e-05,0.000100989965,2.37822946322247e-05,0.244494005709074,1.915
