RSN,Mag,Rrup,Vs30,Z2_5,Ia,CAV,PGV,PGA,PGD,Tm,D595
20713,4.18,67.03,339.94,1813.91121562236,1.15833498133344e-07,0.0059654613276772,4.862795920562e-05,0.00011367878,5.45191768709513e-05,0.173790681705885,2.695
20714,4.18,73.95,344.93,849.4,1.6347596647753e-07,0.00601933676441557,8.54081716986346e-05,0.0002058443,1.3920622096309e-05,0.289199329815215,1.905
20715,4.18,45.12,347.55,2802.2,7.24765119860618e-09,0.00137530140979023,1.44037321080801e-05,3.675008e-05,1.02434228496826e-05,0.107905624212009,2.905
20716,4.18,37.02,261.91,843.3,3.10153621744488e-07,0.00859987231328086,0.00010117939333699,0.0002504184,6.25478423767155e-05,0.17701178330159,2.325
20717,4.18,41.16,339.94,851,7.57955083154546e-08,0.00521611892067208,5.52189046558965e-05,0.00012522375,2.99628167936626e-05,0.237053507201718,2.085
20718,4.18,38.78,282.81,894.7,7.52684870051888e-07,0.0111070569028007,0.000118799044312265,0.000324785055,5.12180131066414e-05,0.205827415821425,2.605
20719,4.18,41.65,337.58,1393.6,4.32327552809326e-08,0.00262741272686178,3.72022928410782e-05,8.8308415e-05,2.15804914396869e-05,0.158762832514212,2.73
20720,4.18,34.09,272.63,894.7,1.66354334624016e-06,0.0215579972526036,0.000217119856458331,0.00058426695,6.65816752627968e-05,0.258840457307453,2.36
20721,4.18,38.95,282.81,3469.1,4.49248605216007e-07,0.00620740923772388,7.85817994998715e-05,0.00030890415,2.77826346239267e-05,0.137484633540349,2.525
20722,4.18,38.27,263.76,2797.4,2.48285127017919e-07,0.00586790146521826,8.01860691331088e-05,0.00021376545,2.7515598509325e-05,0.190033166592015,1.525
20724,4.18,45.58,260.78,842,4.78212587005411e-07,0.0108354694476278,0.000115526317195616,0.00031264295,5.19702801183397e-05,0.197630730204228,2.345
20726,4.18,50.85,286.85,872.2,2.94168092215074e-07,0.0113436923915256,0.000113699273672439,0.00021979905,8.65691442262258e-05,0.263048751533029,2.65
20728,4.18,56.33,256.15,842,2.48717827703734e-07,0.0130958697068976,0.000143720335993297,0.00020095355,8.07824890957118e-05,0.355088870159903,2.29
20729,4.18,41.83,347.55,3547.6,2.75133256076503e-07,0.00776298848956943,8.29204894007409e-05,0.0003130085,4.60263904976921e-05,0.191543568215605,2.47
20736,4.18,34.41,363.45,3018.9,2.00570265316177e-06,0.0267202744438178,0.000403863786290426,0.0006157142,0.00012399005327227,0.349501063372889,2.06
20737,4.18,49.8,341.13,3394.1,2.26280048932645e-07,0.0129470590416723,0.00013924141877312,0.0002496613,6.6327958352386e-05,0.343477685022979,2.01
20739,4.18,68.58,261.91,842,2.63571719294234e-09,0.00244926552792957,2.06208044727393e-05,2.1032865e-05,1.82874815476638e-05,0.281948661355586,2.345
20740,4.18,31.78,336.38,866.1,1.73706326996742e-06,0.0172956928282058,0.000169086284189277,0.00057375115,0.000104887607554559,0.17999364437035,2.55
20741,4.18,37.87,266.31,1267.7,4.27623464093942e-07,0.0123841465206196,0.000175638848638054,0.00030541045,1.83490573646545e-05,0.343733138806956,2.1
20742,4.18,41.96,275.34,1445,3.83230153013108e-07,0.0092186162986312,0.000119159930266923,0.00019053311,7.3892811111381e-05,0.190510832783538,2.545
20743,4.18,43.88,273.32,1026,6.16600420641575e-09,0.00207830935650046,1.86021452611841e-05,3.8531535e-05,1.93709748910725e-05,0.124928768255077,2.785
20744,4.18,42.01,284.38,3331.7,2.22760015533551e-07,0.00868516425329745,0.000113558039148296,0.0001996216,2.67856334965288e-05,0.301426585239307,2.405
20745,4.18,69.11,274.33,872.1,3.19840846438243e-09,0.00242233716717988,2.66965387683693e-05,2.8114865e-05,1.28798556996472e-05,0.449338083667848,2.65
20746,4.18,72.54,378.54,3377.3,1.13579901916351e-07,0.00630346650615272,9.18922339401193e-05,0.0001565263,4.91831738736371e-05,0.242887128623598,1.88
20747,4.18,72.21,518.85,2720.2,4.24186415682023e-09,0.00204335319559875,1.52181884230136e-05,3.8915705e-05,9.64532324430825e-06,0.228292623826225,1.83
20749,4.18,29.05,600,840.2,1.39715323725431e-05,0.0497852768663847,0.000548463417259705,0.002130486,0.000314264221827874,0.189192722382869,2.415
20750,4.18,48.21,391.84,3373.7,2.12350458333083e-06,0.0244294682265528,0.000256629848392598,0.00054116035,0.000155263470401326,0.251853986209198,2.455
20751,4.18,68.06,480.79,3369.4,3.09372246997716e-07,0.00810331054559696,9.73619464356293e-05,0.0002415247,4.44297108022987e-05,0.210308636297154,2.195
20752,4.18,68.33,652.29,881,7.0666250580828e-08,0.00623482242731033,6.38662450578391e-05,0.00011821505,4.70006818054876e-05,0.288623291672721,2.06
20754,4.18,59.66,584,820,1.96052895751152e-07,0.00659775748580417,7.51763578972925e-05,0.00019706285,2.15339220134597e-05,0.23221775464355,2.18
20755,4.18,48.02,433.15,1069.3,3.71681630518991e-07,0.00995679004066671,0.000109048515758381,0.000296677,1.63672771791668e-05,0.242876715513769,2.645
20889,3.7,32.53,242.8,849.5,9.05178443418233e-07,0.0201561500745133,0.00021106603872803,0.00042120895,5.54841052123437e-05,0.325396102913382,2.495
20890,3.7,38.91,326.07,881.1,2.77689919592679e-07,0.00796085331655425,9.30568899879342e-05,0.00023471885,3.76981710978805e-05,0.218496553430162,2.345
20891,3.7,37.26,338.41,873.7,1.97845184656246e-08,0.00206088397132629,1.71911221984067e-05,6.389654e-05,2.00487212992588e-05,0.0940379877114648,2.61
20892,3.7,45.67,287.46,849.5,1.94627393676163e-09,0.000980449912660056,9.79989655241101e-06,1.9728095e-05,8.37510187552532e-06,0.157437511223448,2.755
20893,3.7,41.23,339.94,1813.91121562236,1.72005619225635e-07,0.00912622114900512,8.12714813790987e-05,0.00022070455,8.92405845668804e-05,0.17408075859649,2.4
20894,3.7,33.9,282.81,3469.1,1.5816629200791e-07,0.00349148290268903,4.80694068424711e-05,0.000136752535,1.53967723970615e-05,0.152891227394843,2.555
20895,3.7,46.5,263.76,2797.4,6.92864117656422e-09,0.0063051929658546,5.48758521599688e-05,3.6014965e-05,6.07050878461392e-05,0.561389879939052,2.43
20896,3.7,37.25,253.28,842,6.90084631304733e-09,0.00136974641787296,1.17886952070655e-05,4.399654e-05,1.07757717017222e-05,0.150180568923013,2.78
20898,3.7,59,376,824.9,1.60123550326436e-07,0.00449423396138002,5.36408146949646e-05,0.000126574575,4.64227276496952e-06,0.294185910266292,2.355
20949,4.3,62.9,287.46,849.5,9.19985808916035e-07,0.0264308555569013,0.000249608165179295,0.0003950611,0.000205466141442908,0.275849739335877,2.595
20950,4.3,77.73,339.94,1813.91121562236,1.00214198474369e-06,0.0169074293299185,0.000159350510447868,0.00043007995,0.000146735620784999,0.18582294368245,2.405
20951,4.3,48.37,347.55,2802.2,9.1028744050349e-07,0.0208617842745263,0.000253100910876256,0.0004719736,9.4991853329169e-05,0.32938405684797,2.285
20952,4.3,37.69,261.91,843.3,1.48111862212526e-06,0.0178332173787121,0.000209526028536947,0.00054709305,6.09315097810155e-05,0.230469817533894,2.42
20953,4.3,41.42,339.94,851,3.85666371017386e-07,0.0136052858396793,0.000204251566743999,0.0002697856,9.76865099711628e-05,0.31148304812166,2.58
20954,4.3,42.41,282.81,894.7,9.35463534496885e-06,0.0399527867325321,0.000533486015134855,0.001418965,0.000171230651114871,0.22936598260561,2.17
20955,4.3,46.37,337.58,1393.6,1.38065189601422e-06,0.0149719919533827,0.000168168263139807,0.00043771725,5.0009856266798e-05,0.177340557341821,2.585
20956,4.3,38.66,272.63,894.7,4.49261208811865e-08,0.00145840823998667,1.89407012452964e-05,0.00013415415,8.35819459363108e-06,0.0971337545171256,2.495
20957,4.3,67.38,282.81,3469.1,9.07019871759805e-08,0.00749090390697048,6.39473456586216e-05,0.000126312345,5.77425315397036e-05,0.29651374199316,2.22
20961,4.3,59.58,286.85,872.2,1.38859859702494e-06,0.0240001939915804,0.000227916149441502,0.00053244845,0.000195637861601175,0.254724530686347,2.485
20962,4.3,74.63,256.15,842,1.90009344429429e-06,0.0262788648643586,0.000293015098286437,0.00054347205,0.000130643882191009,0.283226412449219,2.41
20963,4.3,71.01,347.55,3547.6,1.14825524294997e-07,0.00703695578200081,8.80728689482393e-05,0.000148661,3.28339485195572e-05,0.330022584355023,2.3
20974,4.3,74.21,341.13,3394.1,2.63657984572109e-07,0.0147501595732611,0.000140909894542503,0.00018694785,0.00011681865552035,0.340462950856698,2.2
20978,4.3,59.79,287.46,997.5,4.07689974592852e-07,0.01603095356241,0.000160614458814675,0.00025657815,0.000137445196528202,0.26816577935168,2.505
20981,4.3,28.52,336.38,866.1,6.95820195645605e-06,0.0450870625859561,0.000532852510761992,0.0012090085,0.00010859643460626,0.255005206461626,2.09
20982,4.3,48.16,266.31,1267.7,5.41903538582606e-06,0.0384306997572183,0.000496369990015991,0.00094973785,0.000167529217974512,0.271096919994055,2.23
20983,4.3,44.05,275.34,1445,1.19432384551594e-06,0.0148376239010431,0.000183387005835562,0.00045377075,4.11663953389144e-05,0.229045868113334,2.175
20984,4.3,51.29,273.32,1026,2.47104919286396e-06,0.0276057692201166,0.000256814045924822,0.0007587805,0.000160088041011595,0.240808763933934,2.46
20985,4.3,69.65,284.38,3331.7,1.39914884399683e-07,0.00845871672485994,8.95834924500483e-05,0.0001722944,3.38736147635641e-05,0.330187761788585,2.085
20988,4.3,13.62,600,840.2,4.59658871964945e-05,0.116355553474734,0.00244057162521684,0.0035022825,0.000500259290741708,0.300203768733278,2.305
20989,4.3,75.52,391.84,3373.7,4.39509360986882e-07,0.0131166689815807,0.000146363515731636,0.00029178395,6.05102925030287e-05,0.30324083647852,2.22
21024,3.7,47.96,760,867.6,9.57858619731558e-08,0.00450681956446134,5.73620134122219e-05,0.00015110615,2.40146814819597e-05,0.207743928633713,2.28
21036,3.7,49.4,506.29,849.6,5.94586986077365e-07,0.00621148344235906,6.59916852145375e-05,0.0003747503,4.34026211486821e-05,0.117166734658898,2.635
21037,3.7,74.72,760,837.4,3.1670479120274e-10,0.00350355419207655,2.13953369656507e-05,9.029417e-06,3.49143844569122e-05,0.496625700030389,2.345
21038,3.7,76.91,404.73,725.6,1.30532287081206e-07,0.00574600240457719,5.52164426419871e-05,0.0001706146,3.68563941531288e-05,0.201297458813199,2.635
21062,3.7,18.7,395.54,849.6,3.80472778712936e-05,0.0663788338863945,0.000754938046147023,0.0027913745,0.000240954273415895,0.182196866736971,2.555
21063,3.7,72.28,242.8,849.5,2.66356169314833e-07,0.00724633254943252,8.31345488373002e-05,0.0002046528,5.23326197210622e-05,0.183514381134667,2.24
21064,3.7,70.82,338.41,873.7,1.05178271020433e-06,0.0120016970914119,0.000176788833756537,0.00043929285,4.72445018084093e-05,0.201769970764567,2.155
21070,3.7,73.42,346.04,864.7,7.48339293216133e-07,0.00915924923349939,0.000110449686914449,0.00038109905,4.5001089197273e-05,0.169670741595267,2.18
21071,3.7,74.36,239.65,842,1.77244517815645e-08,0.00322386655339313,2.53276939959363e-05,6.131955e-05,1.95649849456957e-05,0.164432896571699,2.63
21077,3.7,79.93,407.1,1146,9.02899624716519e-07,0.00776357430443159,9.7553681207041e-05,0.00040720915,3.81587129816881e-05,0.135680842284844,2.16
21078,3.7,53.94,688.28,850.9,3.65794820217771e-06,0.0222387216104465,0.000209052489542611,0.00071226655,0.000164353260945822,0.163121125411862,2.37
21079,3.7,62.45,299.37,849.6,3.98823575551749e-07,0.0102460268219533,9.57174728495879e-05,0.0002481202,8.40255491808377e-05,0.199621733386568,2.655
21080,3.7,49.88,462.66,3398.2,1.38448140139586e-08,0.00221602479229296,2.27402745856429e-05,4.5679469e-05,1.88142844917591e-05,0.395127822928648,2.68
21081,3.7,74.23,264.86,842,3.41529691704213e-07,0.00735784037891202,8.67284121846302e-05,0.0002581595,3.961209292799e-05,0.179907639399966,2.225
21082,3.7,68.95,311.84,843.4,1.57798290692557e-07,0.00405655684007858,5.07210750997635e-05,0.0001242397,2.31458826851904e-05,0.175937637004211,2.72
21083,3.7,76.7,407.62,881.1,1.81114464624713e-06,0.00976167566077569,0.000116286916747853,0.0006209097,2.81579657830452e-05,0.117024310412393,2.525
21084,3.7,70.41,258.1,842,2.03114517009591e-09,0.00172223687703445,1.33328514354947e-05,1.8740695e-05,1.51480493918354e-05,0.29655716264867,2.705
21085,3.7,69.56,354.81,856.9,5.79387729399632e-08,0.00386946744792065,4.16246836103006e-05,0.00010890335,3.34773084403622e-05,0.180153535583384,2.345
21086,3.7,72.51,285.93,849.6,1.60086439301307e-08,0.00168301130068273,1.69178590366037e-05,6.894953e-05,8.79340492724335e-06,0.190380699162822,2.62
21087,3.7,75.54,387.23,873.5,4.80737579719457e-07,0.00594055835163877,6.64586008563018e-05,0.0003659964,3.64895947669467e-05,0.122429261316884,2.525
21090,3.7,65.37,361.42,864.7,1.93332146892483e-08,0.00304729082848491,2.96799319279385e-05,6.063252e-05,2.6448186999129e-05,0.204361829189777,2.73
21091,3.7,67.2,414.77,873.6,3.65694026145454e-09,0.00155067242352096,1.17664260075462e-05,2.9845505e-05,1.07831087837897e-05,0.234395039425197,2.765
21094,3.7,75.83,378.54,3377.3,2.1922212777528e-08,0.0027863730875217,3.11010179905675e-05,5.0294825e-05,2.03601668090045e-05,0.328936161022169,2.445
21095,3.7,59.41,468.52,3046.2,9.63208461658021e-08,0.00439545222419643,5.58276453992521e-05,0.0001253499,2.54147103552486e-05,0.206895810724098,2.205
21120,3.7,32.21,652.29,878.3,3.65246615448153e-07,0.00662676034999457,8.48315186946742e-05,0.0002847091,1.59340992952728e-05,0.18006033895394,2.365
21121,3.7,75.3,403.94,3559,2.35389355619083e-09,0.00167673746791404,1.51181463163945e-05,2.2452245e-05,1.14291685271972e-05,0.31967162236101,2.44
21122,3.7,29.68,760,837.4,4.44666006335469e-07,0.00976738747681053,0.000109951420697307,0.0003430468,3.18421977205936e-05,0.22977366277829,2.215
21133,3.4,24.97,686.73,879,7.08794695866869e-05,0.064353826194137,0.00106061709717408,0.005458244,0.000463212298206322,0.120340340274339,1.615
21136,3.4,40.12,643.8,726,5.53363112541749e-09,0.000586184281960059,1.00039602843485e-05,4.781536e-05,5.83418139297145e-06,0.118525994506828,2.7375
21141,3.4,59.99,287.46,849.5,2.2323553574255e-08,0.000966441828237938,1.48918593327582e-05,0.00010579346,5.90754577035983e-06,0.0828505314683906,1.905
21142,3.4,45.54,347.55,2802.2,2.6922734129306e-09,0.000793034655303755,6.39618058533426e-06,2.301531e-05,2.23716925452737e-06,0.136950660492852,2.8
21143,3.4,35.01,261.91,843.3,5.26063721907419e-08,0.00191442196803533,2.11576507129312e-05,7.274892e-05,1.40564124617043e-05,0.128640940105019,2.56
21144,3.4,38.67,339.94,851,1.86553054857626e-09,0.000625805458124861,6.77649547791353e-06,2.0779345e-05,4.1379388184287e-06,0.147330896377878,2.7
21145,3.4,39.67,282.81,894.7,1.67150776303545e-07,0.00368354838492825,5.20707925305384e-05,0.00018213,1.20269376689959e-05,0.162232037711173,1.76
21146,3.4,43.58,337.58,1393.6,2.56584123446246e-08,0.0012547271192188,1.50723040424315e-05,6.8429105e-05,7.76743376579674e-06,0.122844507522021,2.455
21147,3.4,48.22,263.76,2797.4,6.0373742310454e-09,0.000888392859114016,9.71122202306731e-06,3.156318e-05,4.20443335626886e-06,0.152207560503921,2.655
21149,3.4,53.17,260.78,842,3.99204764759312e-09,0.00110692835717194,1.02913153806324e-05,3.242077e-05,5.66301931765002e-06,0.17165470584151,2.685
21150,3.4,56.69,286.85,872.2,7.43530815270436e-09,0.00100134024954216,1.09637567734171e-05,5.082564e-05,6.39132211308541e-06,0.12600420679545,2.37
21151,3.4,40.6,357.28,3344.2,1.38986984219541e-09,0.0010922188880975,8.31926886425177e-06,1.7411695e-05,1.00366230801035e-05,0.130528382916699,2.46
21152,3.4,44.62,365.78,3068.1,2.32772102007887e-09,0.00127154996143797,1.05659485025107e-05,4.0295265e-05,1.04465792264162e-05,0.147259401162961,2.52
21155,3.4,56.87,287.46,997.5,3.91660215466505e-09,0.00137444257072172,1.09470688995916e-05,4.078181e-05,1.16872238592038e-05,0.123572528730935,2.315
21156,3.4,26.05,336.38,866.1,3.25497297790008e-08,0.000990077316406731,1.30383647394138e-05,7.9674045e-05,4.68457427800534e-06,0.0864103695827588,2.585
21157,3.4,41.27,275.34,1445,3.40471765843358e-09,0.000536577829462239,6.08087290717053e-06,3.306867e-05,2.78332426008407e-06,0.0989236100962729,2.52
21162,3.4,44.58,519,908.5,1.909094584395e-10,0.000774415486366419,7.65791878746859e-06,6.0084315e-06,6.37572199681646e-06,0.529644034374518,2.535
21163,3.4,73.36,391.84,3373.7,1.79030115340609e-10,0.000713205423782245,6.92681909040401e-06,5.7005735e-06,4.07909125522753e-06,0.489122863509346,2.79
21164,3.4,36.06,471,2437,9.72288600938284e-08,0.00334314744833254,3.30395365889208e-05,0.00015600415,2.49819113607995e-05,0.11237606252672,2.675
21171,3.4,60.16,584,820,8.4301669968995e-09,0.000679047486584228,1.02753240134339e-05,4.2513475e-05,2.38895874134462e-06,0.26083648183286,2.575
21172,3.4,43.92,560.63,3371.6,2.19232074113156e-07,0.00417493720298495,4.85832916506469e-05,0.00020518445,1.24348348319228e-05,0.135651996811034,2.6
21174,3.4,58.57,504.27,1041,2.72403283551423e-07,0.00399023193281038,5.06057605039933e-05,0.00024930265,1.60327192006595e-05,0.1124332563609,2.335
21176,3.4,63.48,429.01,3344.4,2.3161380440899e-07,0.00527481305961279,5.14526199806883e-05,0.0002155221,2.05489831658246e-05,0.156871135300412,2.555
21178,3.4,73.58,402.6,1079.3,1.04749771440675e-07,0.00245088505870074,3.70209038010238e-05,0.0001493687,8.69930207083732e-06,0.124910182549746,2.14
21180,3.4,65.97,432,890.3,3.22455287486037e-08,0.00122747398519356,1.44398415888664e-05,4.95424945e-05,4.16022218510295e-06,0.247753589113259,2.49
21198,4.01,16.79,527.95,320,0.0001727723244282,0.0603278520391299,0.00307196955742533,0.010599681,0.00016018071205668,0.155821815216222,1.2875
21294,4.2,55.08,396.89,240,1.8596380487939e-05,0.0540734107115401,0.00074969568062933,0.002201562,0.0002670575453397,0.185041526858701,2.36
21306,4.2,71.53,287.46,849.5,6.54884411766185e-09,0.00579168844276292,3.45985338856856e-05,3.2793295e-05,5.77688451877934e-05,0.139004486886675,2.65
21311,4.2,55.85,471,2437,1.95744918452125e-07,0.00757309750764047,8.20552092367396e-05,0.00019062775,2.7349923892747e-05,0.209812686422386,2.475
21317,4.2,20.81,646,1589.9,9.61641838690264e-06,0.0315455157214669,0.000405044319633604,0.0014298545,0.000128157915337278,0.143905421109113,2.51
21319,4.2,67.37,584,820,3.11377324527858e-10,0.00227508219401986,1.63845635017001e-05,7.2521495e-06,1.97593371355013e-05,0.726221508848581,2.79
21321,4.2,72.96,437,783.6,3.06707835084009e-08,0.00448346861438886,3.49980794075818e-05,8.72904e-05,4.20217741842972e-05,0.132026458093099,2.19
21325,4.2,73.15,402.6,1079.3,2.63573841439661e-07,0.00399102099884245,6.1129723104981e-05,0.0002276132,2.01665678700163e-05,0.115347669140801,2.35
21327,4.2,75.68,432,890.3,6.9314203595111e-08,0.00257281856536789,3.08632932446875e-05,0.00013392995,1.38219966468308e-05,0.141165054749421,1.855
21351,3.96,61.03,326.07,881.1,4.16209817384147e-09,0.000810527138882234,7.28066223917211e-06,2.6085875e-05,7.16264701730269e-06,0.107763973550753,2.81
21352,3.96,60.55,344.76,879.6,1.9427358719208e-07,0.00744342541231154,7.82181587013033e-05,0.0001896252,4.03173086644102e-05,0.236042286975201,2.345
21353,3.96,67.93,407.1,1146,6.86239747198692e-07,0.00996700670364942,0.000123190824775794,0.0003751604,6.87006162623373e-05,0.145375331987399,2.235
21354,3.96,58.45,264.86,842,1.58283475870915e-08,0.00179313466474981,4.16101598177379e-05,7.8428895e-05,9.59041794325835e-06,0.390465708512445,2.075
21355,3.96,62.34,407.62,881.1,3.32393913059766e-09,0.00117172030123639,9.44809129459588e-06,2.9167995e-05,1.14577893766946e-05,0.106367386222594,2.755
21356,3.96,46.82,354.81,856.9,7.4128764577738e-08,0.0044613165475878,9.92852092027997e-05,0.0001825378,1.73848133011677e-05,0.449433144234249,0.645
21358,3.96,65.54,341.13,3394.1,2.85800344575387e-10,0.00122432445405247,1.03652512264496e-05,7.8041795e-06,9.99640666165875e-06,0.431873754469663,2.38
21359,3.96,42.82,414.77,873.6,3.24996480324212e-09,0.00132137811980627,1.34637582503527e-05,3.036513e-05,1.02637892715319e-05,0.231312257325981,2.49
21360,3.96,57.25,507.43,3542,2.22228316144149e-08,0.00285061819513887,2.94060440761561e-05,5.941814e-05,2.68787791097356e-05,0.169455603331508,2.45
21361,3.96,44.83,480.79,3369.4,3.98925223657928e-08,0.0026077078440696,2.82538526046005e-05,0.00012308655,1.13917561728532e-05,0.145002723602692,2.135
21362,3.96,50.69,561.96,849.5,1.43366632419577e-09,0.000714631019723693,5.45172362393372e-06,1.6723035e-05,6.51165215252415e-06,0.126950630829489,2.755
