RSN,Mag,Rrup,Vs30,Z2_5,Ia,CAV,PGV,PGA,PGD,Tm,D595
21365,3.96,7.3,760,870.5,0.00145318142909747,0.389240205961576,0.00591289497415347,0.01831327,0.000448912065815042,0.195242231977287,2.41
21366,3.96,60.13,760,837.4,7.46309456298316e-09,0.00428292161484274,3.36706950237961e-05,4.321434e-05,3.26729737420545e-05,0.569569859627947,2.185
21367,3.96,59.16,404.73,725.6,6.41724858840932e-07,0.00857737087921564,0.000119210324608842,0.00035167695,4.89135757031923e-05,0.168895319450481,2.38
21368,3.96,79.11,560.63,682.9,6.2269248908968e-10,0.00140204444410265,8.48838942892964e-06,1.21093385e-05,1.28419783931031e-05,0.231773473804735,2.81
21379,3.5,68.12,395.54,849.6,1.97035896137698e-09,0.00105975059685247,7.32625848782274e-06,1.827552e-05,9.67532844301907e-06,0.191600291281557,2.785
21380,3.5,31.83,242.8,849.5,4.10103706759225e-09,0.00376251379268528,2.23933920667144e-05,4.0510465e-05,3.76143784965129e-05,0.301829097788972,2.665
21381,3.5,36.75,338.41,873.7,2.7206941920425e-07,0.00647508355898245,8.18610230014131e-05,0.00024145505,2.59298855382249e-05,0.211711539694422,2.225
21382,3.5,39.49,344.76,879.6,8.52456263434913e-09,0.0011729815520957,1.37559326697728e-05,4.0523675e-05,4.66312528604755e-06,0.188745380889226,2.225
21383,3.5,41.09,339.94,1813.91121562236,1.17642926517078e-07,0.00349531678965533,3.63804726769633e-05,0.0001313321,4.03911331574233e-06,0.177319822391813,2.535
21384,3.5,62.75,339.94,851,3.40841755529449e-10,0.000495790123345762,4.29523222834628e-06,8.0506675e-06,1.97378474386366e-06,0.403333215775781,2.48
21385,3.5,56.33,337.58,1393.6,6.14001588770937e-10,0.000779858277769888,6.59991732831816e-06,1.31653395e-05,3.89401330107217e-06,0.290027043721427,2.71
21386,3.5,36.87,253.28,842,1.43648447074866e-07,0.00747431109053571,7.79975411935728e-05,0.0001482849,4.29984845532695e-05,0.290260224722918,2.385
21387,3.5,29.8,239.65,842,3.44394519648792e-09,0.00202836423900889,1.4106545151412e-05,3.000125e-05,1.8022056397683e-05,0.189552438720564,2.72
21388,3.5,52.59,357.28,3344.2,1.82402073821046e-10,0.00118646096517957,8.92002501425058e-06,5.8871505e-06,1.18048905257389e-05,0.440920716666961,2.525
21389,3.5,25.06,256.15,842,1.98554580978884e-06,0.0151190863888728,0.000196096483487341,0.00061032105,2.94695403943724e-05,0.202105076270397,2.31
21390,3.5,31.7,347.55,3547.6,4.22809437629702e-08,0.0038039858671424,4.19381968965768e-05,9.6550045e-05,2.49260055166964e-05,0.209113617230542,2.39
21391,3.5,31.07,264.86,842,3.01607258733506e-09,0.00104939453640193,1.06920578926659e-05,2.168524e-05,6.96193398660974e-06,0.240594754159475,2.735
21392,3.5,20.54,258.1,842,6.08924175154315e-07,0.00742037708635587,0.000113591219425387,0.0004135665,1.23203908180846e-05,0.154189094361893,2.59
21393,3.5,19.12,354.81,856.9,2.80199656650768e-08,0.0020323147244052,4.23652569711914e-05,0.00011361337,1.49024395787055e-05,0.202245549296048,2.405
21394,3.5,47.81,363.45,3018.9,4.00398971021382e-10,0.000947227435918401,1.00119843591434e-05,1.3252205e-05,6.1992286243985e-06,0.488136000237942,2.55
21395,3.5,62.99,364.45,1077.5,1.47366028279348e-10,0.000572948027205336,4.98898457850657e-06,5.3603915e-06,3.85845444786281e-06,0.427709190080797,2.75
21396,3.5,55.65,471,2437,1.72908783688945e-10,0.000495409681441571,3.63962131744623e-06,5.979639e-06,2.3916851860644e-06,0.398097437276933,2.695
21397,3.5,77.74,760,698,7.74895473318558e-10,0.000594541510877691,4.81460909272241e-06,1.16962555e-05,5.23954697665786e-06,0.17524112095297,2.77
21398,3.5,43.97,403.94,3559,8.25128272472884e-10,0.0011683516156838,1.23046266798168e-05,1.198352e-05,1.12363297508524e-05,0.299549618640353,2.515
21399,3.5,55.13,760,1473.2,5.68220585898277e-10,0.00116821925599525,7.72909810758359e-06,1.6660175e-05,1.15634634266426e-05,0.237124516006395,2.565
21414,4.1,69.95,395.54,849.6,7.77735525291808e-07,0.0154694379138885,0.000164358169858409,0.0003472002,0.000115952145678922,0.215563756033046,2.43
21415,4.1,40.25,242.8,849.5,1.88982237888078e-06,0.0191704211065884,0.000219415521335683,0.00074582935,0.000156498008810816,0.158821721560926,2.64
21416,4.1,38.26,238.66,842,2.7777820754189e-06,0.0187985835257064,0.000193456094092005,0.00064494085,0.000137799834410491,0.162309754975337,2.665
21417,4.1,46.61,326.07,881.1,1.02161976699954e-06,0.0121805402801577,0.000128723795478028,0.0004680615,8.80364385872944e-05,0.172808571760983,2.565
21418,4.1,44.83,338.41,873.7,4.33111275193015e-06,0.0203246842717197,0.000292750163624655,0.0010453204,0.000140721411300595,0.155494826693139,2.505
21419,4.1,47.45,344.76,879.6,1.03305256193704e-06,0.0107249293970667,0.00012462405584283,0.00042473785,6.9371688420513e-05,0.15870734875966,2.695
21420,4.1,52.27,287.46,849.5,2.20613076120939e-08,0.00309438354408687,2.44813336076086e-05,6.059061e-05,2.6905679701097e-05,0.0845368508232493,2.685
21421,4.1,49.18,339.94,1813.91121562236,3.38399033447532e-06,0.0263877794512348,0.000219504531110014,0.0007045957,0.000175168799468465,0.15391814458885,2.635
21435,4.1,68.43,652.29,878.3,1.86326361666351e-08,0.00278785176100746,2.81132982003206e-05,7.0144525e-05,7.55457509527471e-06,0.315648433265754,2.065
21436,4.1,38.44,403.94,3559,4.9503173905971e-07,0.00920103336162027,0.000115412617674588,0.00036625915,7.47747513074996e-05,0.163074756886015,2.625
21438,4.1,71.65,760,868.9,4.6111699854449e-07,0.00519781354314946,6.89960266881849e-05,0.00028025985,2.15170562140752e-05,0.112115622120604,2.55
21439,4.1,33.59,652.29,899.5,8.07093104005103e-07,0.00978331093156082,0.000125945640556644,0.0005170616,3.9759562712938e-05,0.166014841636838,2.5
21440,4.1,34.63,627.87,3344.8,2.4410695532109e-06,0.0145861918260948,0.000188886147324766,0.00068602625,2.14644872969556e-05,0.167247157857855,2.575
21441,4.1,73.46,404.73,725.6,8.96689421840616e-07,0.00977519165936151,0.000113280153821092,0.0003953729,4.85943197705383e-05,0.149437714465994,2.585
21443,4.1,74.58,664.57,855.3,2.00766736177124e-09,0.00420365081093355,2.57523934044465e-05,2.31217e-05,3.76328378959447e-05,0.520182992422863,2.705
21444,4.1,56.27,760,1473.2,2.74096217358665e-07,0.00959751981739491,0.000102039694049076,0.00030280905,6.52900520462392e-05,0.238096371458564,1.975
21445,4.1,54.04,760,871.3,6.15820924095963e-07,0.00768716033206324,7.41852328473637e-05,0.00036046145,6.47989007215597e-05,0.111330160652424,2.15
21446,4.1,51.37,453.67,3319.4,4.89951139476507e-07,0.0121377600058661,0.000146321206959892,0.00038572515,3.46132332722796e-05,0.279064642665934,2.51
21472,3.5,79.64,365.78,3068.1,5.03914213357218e-09,0.00108337490200697,1.01653067731741e-05,2.4468495e-05,6.98070649087665e-06,0.277641320160334,2.615
21473,3.5,75.16,275.34,1445,8.68998646156198e-10,0.00101670612680642,7.17810099304407e-06,1.3387915e-05,9.26360332962998e-06,0.171478423504931,2.69
21474,3.5,49.97,600,840.2,5.12171834608309e-08,0.00148454710740829,1.99360420191142e-05,7.18665465e-05,5.25254797468537e-06,0.177045968432122,2.55
21475,3.5,65.33,519,908.5,2.11165713522673e-10,0.0004940923921499,4.33428075993106e-06,6.007688e-06,1.85963400870754e-06,0.44624369218665,2.805
21477,3.5,60.93,471,2437,2.96917551228578e-10,0.000502824442637525,5.2597949351876e-06,7.458541e-06,1.02281119646675e-06,0.469817428562934,2.76
21487,3.5,77.26,323,726.8,3.29631913963539e-08,0.00134770223722734,1.65263644338709e-05,5.05032995e-05,3.25774671845469e-06,0.216606682766911,2.355
21490,3.5,79.43,690.97,792.5,4.58980420348785e-08,0.00199741836897134,2.40349253626416e-05,9.2929225e-05,9.60875489094245e-06,0.146697072851085,2.235
21491,3.5,59.45,477,798.8,3.72855955907226e-08,0.00187498349056713,2.32693620068131e-05,6.9170042e-05,3.71079700910074e-06,0.342553518189194,2.62
21496,3.5,49.47,710.29,861.7,1.91004016795421e-08,0.00106939193215623,1.68232614253789e-05,6.834871e-05,2.25422627004069e-06,0.178183649112324,2.0875
21498,3.5,36.48,686.73,879,4.69983541462026e-09,0.00035901542036921,3.87657495800312e-06,3.3969835e-05,2.81476650917784e-06,0.0937844610909676,2.78
21500,3.5,67.01,643.8,726,8.89245144453033e-10,0.000334981769805908,5.76431755797946e-06,1.22782755e-05,2.48206551751433e-06,0.235248815347645,2.3875
21502,3.6,20.85,242.8,849.5,0.000411166617771642,0.195151624659647,0.00375833738335683,0.012651325,0.000394869525676285,0.211704696248904,1.385
21503,3.6,18.66,238.66,842,0.000483306423806576,0.157097993608049,0.00487520947358676,0.013394415,0.000341258094790569,0.247869722245445,0.445
21504,3.6,24.8,338.41,873.7,2.31546443289951e-06,0.0140607759046662,0.000190133986429219,0.0006646319,6.75494459859024e-05,0.160273252124858,2.52
21505,3.6,27.24,344.76,879.6,1.37697711996973e-05,0.0154684917432942,0.000936868374544693,0.00331476225,9.99659160142842e-05,0.166892254188063,1.305
21507,3.6,12.56,490.24,3361,0.000144773099144761,0.0714490889382583,0.00285741595784608,0.009255174,0.000196871773545925,0.198315205020437,0.74375
21508,3.6,8.25,410.46,903.8,8.87035940249788e-05,0.0507742020747044,0.00140755952297835,0.006156535,0.00016857818127379,0.138025726033975,1.30625
21510,3.6,18.08,613.05,881.1,2.53857947754071e-05,0.0444457080175315,0.00077871156704575,0.002737241,7.09064940155726e-05,0.171800247580432,2.71
21511,3.6,59.76,519,908.5,8.05883790750616e-09,0.00071397270365319,9.14301399028734e-06,5.4819165e-05,4.19498061177385e-06,0.11477906194795,2.14
21512,3.6,48.42,552.56,3501.7,3.14759277475649e-07,0.00583084403871803,8.0806269720244e-05,0.0002950123,3.16496365012671e-05,0.165990679519837,2.32
21513,3.6,38.78,391.84,3373.7,4.47334763918597e-07,0.00848787195351266,8.73443377200947e-05,0.0002704225,9.50475671948954e-06,0.210825324629333,2.325
21514,3.6,68.17,471,2437,2.92871185966452e-08,0.00222510232707521,1.96107166366423e-05,8.8349035e-05,1.82380739561289e-05,0.140960188858379,2.16
21515,3.6,21.44,501.27,3473.8,4.57620406574049e-06,0.0183794760589245,0.000201803348844521,0.0008710883,6.65342876416221e-05,0.15404353177305,2.685
21516,3.6,39.04,507.43,3542,4.33159139109812e-06,0.0229580321160288,0.000251240860147573,0.00085013745,2.78346278511012e-05,0.192715849919526,2.31
21517,3.6,22.61,480.79,3369.4,3.2871052372299e-05,0.0540335146438305,0.000768844484266298,0.0032036955,0.000299530834818255,0.150997662405958,2.025
21518,3.6,30.36,652.29,881,2.61037405038666e-06,0.0158580306365274,0.000186171971670523,0.0007912063,7.97648658628763e-05,0.151711478260967,2.525
21519,3.6,27.79,422,3468.5,9.5431668921607e-07,0.00869369982574444,0.000114207150252028,0.0004385175,2.93000773571562e-05,0.158567945944017,2.455
21520,3.6,70.06,507.06,695.6,4.43678165744627e-08,0.00227313519726067,2.50850314327146e-05,0.00011185649,1.29920070519832e-05,0.138720918801549,2.525
21522,3.6,58.53,385.47,3323.7,4.54857720812051e-06,0.0201539487357301,0.000274250916348873,0.001094787,0.000106665079435664,0.148075504173861,2.385
21523,3.6,60.9,584,820,2.36647468926305e-07,0.00308280371640449,3.58491083237207e-05,0.00023340315,1.19135064992424e-05,0.115549119138597,2.355
21524,3.6,79.14,560.63,3371.6,3.8733596492935e-07,0.00729186152145246,6.94086713040538e-05,0.0002568202,4.22478980349476e-05,0.155152751220639,2.52
21527,3.6,56,437,783.6,1.00438315119041e-06,0.00673019132842648,9.19485817050834e-05,0.00051528815,3.66218884806352e-05,0.112371164685766,2.295
21528,3.6,43.56,719.52,694.5,1.72936257282887e-06,0.0147417664596775,0.000131056069472235,0.0006474976,0.000143571759749561,0.102025649626061,2.575
21529,3.6,72.21,504.27,1041,1.10293169200629e-06,0.0111381059428525,0.000117117160916991,0.0004059158,2.62517839788466e-05,0.174320897501195,2.575
21530,3.6,76.32,690.97,792.5,2.78525828908911e-07,0.00379642722120894,4.56733415211553e-05,0.00021188895,1.56127540939368e-05,0.123088480159056,2.38
21532,3.6,33.37,635.15,796.1,1.06798789233531e-06,0.0101163069265485,9.19151764551073e-05,0.0006060619,9.90005536859444e-05,0.0987084714187534,2.63
21533,3.6,65.78,429.01,3344.4,4.29541270219455e-06,0.0192913288152751,0.000303593754085677,0.00100679655,0.000101438203670912,0.147826690306302,2.185
21534,3.6,74.41,402.6,1079.3,1.10529507070947e-06,0.00938364355282605,0.000134100912817358,0.00050412825,2.60661606219619e-05,0.154858005307471,2.395
21536,3.6,35.63,723.35,796.1,3.8767292284259e-06,0.0132390400504275,0.000193139159604853,0.0013778516,5.10117639762644e-05,0.122069121861338,2.255
21537,3.6,51.36,432,890.3,2.26686835499482e-07,0.00544255800387339,6.39854615182155e-05,0.00026609745,3.67878482589761e-05,0.139256918492926,2.275
21538,3.6,39.13,535.12,666.8,7.0131359414532e-07,0.00847646713711885,8.85616151152193e-05,0.0004386247,6.52141486485061e-05,0.140782688804657,2.68
650,5.99,17.75,339.52,2400,0.0433714563409377,5.99957857138341,0.0512811589697474,0.1301537,0.00780072755609626,0.302508355240194,1.3125
651,5.99,71.75,425.34,240,0.00027763101662239,0.863894226913312,0.00413430992953747,0.008557349,0.00279895324306999,0.310569352625481,2.2325
652,5.99,26.68,267.35,6180,0.00361310570683945,1.86603474705189,0.0127375026665445,0.028875105,0.00478369884105376,0.13949736696174,2.3125
653,5.99,67.62,339.14,260,0.000330716475193794,0.870265597454107,0.00433668761498914,0.0077591125,0.00241528716346785,0.254888425005422,2.5425
654,5.99,30.04,311.86,3180,0.000322757192176166,0.923876420180226,0.00476203108239693,0.0101571325,0.00288352048364559,0.233098263494623,2.4875
655,5.99,59.13,375.22,220,0.000445120373809274,0.760678362385469,0.00465017144610961,0.0089777295,0.00147475156468612,0.239232005536634,2.42
656,5.99,59.6,327.44,240,0.00266401522969645,1.024594227679,0.00791762624982873,0.030088685,0.00239836562968615,0.138720507140719,1.53
657,5.99,48.64,578.11,480,0.011512718301897,3.12297702934084,0.0216683278020541,0.054392025,0.00512726457747688,0.234023983962123,2.16
658,5.99,63.23,349.54,220,0.000268081543588054,0.706036455179346,0.00519187798341605,0.0076114485,0.00142992799985229,0.235913051173031,2.1825
659,5.99,62.07,436.53,220,0.00131258211578547,0.654016672585319,0.00357656010204966,0.01485186,0.00122128430410005,0.130650665116882,2.3225
661,5.99,36.79,569.84,180,0.00294104845216718,1.63556374874037,0.0102044812877269,0.02495252,0.00313179718669644,0.224749076363905,2.24
662,5.99,74.69,341.58,4440,0.000376434564871196,0.806503251518052,0.00529222108226576,0.008832031,0.0021215102212051,0.242193201922323,2.1675
663,5.99,22.73,680.37,280,0.0460131507898924,3.8719991708303,0.0414392935960552,0.1199172,0.00664013696733402,0.176937562897015,2.0475
664,5.99,33.11,326.47,3780,0.00353606739663357,1.95627786009368,0.0123968734454884,0.030666535,0.00619699255908279,0.203084567008172,2.4075
665,5.99,52.2,269.14,3140,0.0023461862337347,1.88765755056737,0.0136455703750306,0.025692725,0.00497248376500059,0.296938926865148,1.895
666,5.99,58.61,285.93,2380,0.000669077141194143,1.22018636051396,0.00677744536604185,0.01171101,0.00467183829673784,0.280114385054808,2.425
667,5.99,41.69,280.86,4600,0.000708031304984016,1.24160526167247,0.00644441481278305,0.0113570865,0.00371591623699391,0.22153842359109,2.69
668,5.99,20.42,279.46,3200,0.024296959204416,6.6556831755142,0.0616262300282365,0.10813716,0.0192379224379646,0.356293643903945,1.6525
669,5.99,22.84,415.69,4420,0.0126984397615139,2.47041911085305,0.0146787186979089,0.05514635,0.00328193507773203,0.154908344513628,2.14
670,5.99,41.32,191.06,1500,0.00151896581316727,1.62643726877162,0.0110416887172399,0.02267841,0.00381784088920555,0.346845108119575,2.1625
671,5.99,36.12,508.08,4020,0.00318784486914873,2.10470288370156,0.0123171907415499,0.02242282,0.00581762969741775,0.269533260190663,2.3475
672,5.99,36.29,323.76,4540,0.0118913855295079,2.1428960235034,0.0100883367562458,0.04075661,0.00418482209932909,0.142561512740213,2.3325
673,5.99,36.55,318.16,4400,0.00365982558003587,2.08560044053419,0.0104051741099263,0.02770764,0.00475146438159362,0.233377623404527,2.385
674,5.99,17.3,341.14,1100,0.116646911070627,17.8356895436355,0.126501924230259,0.1451119,0.0309754309549233,0.471688540733257,1.4775
677,5.99,17.3,341.14,1100,0.183513339660636,12.3189499399802,0.121648944508334,0.2036227,0.0264846225746694,0.286397191208931,1.58
678,5.99,17.3,341.14,1100,0.175740633877097,14.488328178148,0.123114986912116,0.2030949,0.0237009186125532,0.279893659734651,1.37
681,5.99,17.3,341.14,1100,0.316660336861135,18.7976726971109,0.148015135047864,0.31714225,0.0209660938898128,0.275073725902947,1.305
683,5.99,19.17,397.27,1060,0.183165855925086,12.1990991110061,0.0940514869600304,0.2499664,0.020406976639451,0.246281178654928,1.51
684,5.99,32.8,345.72,3380,0.00267413393011,2.02397830322442,0.0132348049957328,0.021716895,0.00665277999361224,0.240615167844885,2.225
685,5.99,29.65,384.44,300,0.000665171529623283,0.831267944758333,0.00449619477514795,0.013093035,0.000958648443439184,0.207493376104196,2.15
686,5.99,44.54,390.18,280,0.000818396923832674,0.631978198053846,0.00344820471592924,0.01441995,0.00162000333559765,0.126182773268614,2.2975
687,5.99,42.26,508.83,320,0.000998210800152991,1.61067224323004,0.0104425870006349,0.01486717,0.00392936725621948,0.399852804830485,2.045
688,5.99,56.48,389.95,240,0.000766029933709245,0.921292944112895,0.00477612614234312,0.0117131,0.00178618319152492,0.1940540358316,2.42
690,5.99,15.2,401.37,2080,0.290470617258388,26.2635568846679,0.172587683403965,0.23743225,0.0448589442557442,0.43039334684532,1.505
691,5.99,15.94,379.43,1640,0.12633028540456,17.6991154287646,0.0886616052570369,0.15598,0.0270678438287278,0.32566518416422,1.705
692,5.99,18.49,339.06,3300,0.704331217103332,30.822925422998,0.32783343578944,0.46030165,0.0421253163189876,0.399510914099579,1.075
693,5.99,35.86,385.87,3180,0.000744601275263765,1.94229408641827,0.0125933955223658,0.015300495,0.00542489744057257,0.410802370412998,2.0075
694,5.99,31.06,400.44,2660,0.0034337225022163,1.62908591842143,0.0100931465875376,0.024359495,0.00267185257224401,0.189594018887562,2.5275
695,5.99,34.99,320.93,4500,0.00433989299042303,1.82872463425124,0.0120566147434258,0.029979755,0.00319106495913737,0.206366172765657,2.2525
696,5.99,31.93,393.67,1540,0.0013009774281115,1.86501465621314,0.00881293930360359,0.014749525,0.0083286759617876,0.215671955205368,2.5925
697,5.99,30.37,402.16,280,0.0318597111421988,8.73053855080458,0.0398875406949918,0.08150468,0.00706519494650967,0.367232345161897,2.025
698,5.99,42.34,440.54,4520,0.00102840504137089,2.07029662873417,0.0105965498471572,0.01606291,0.0101869418279882,0.196585816132394,2.2775
699,5.99,40.61,348.87,4540,0.000555957259255311,0.91037757679091,0.00542229001425093,0.01134969,0.00258587904346391,0.25974289419384,2.125
701,5.99,40.36,260.6,1260,0.00735835189158612,3.98492830443633,0.0213187915746325,0.035778355,0.00603718737488414,0.335407757925327,2.2875
702,5.99,36.11,289.04,1680,0.00765037705928277,2.95165628521861,0.0158160159044652,0.040050395,0.00774928794745196,0.239213767361548,1.875
703,5.99,50.39,996.43,220,0.000587208130670643,0.659071359220814,0.00325681341907513,0.011112265,0.00139302781965038,0.166318710810413,2.375
704,5.99,34.34,416.93,2880,0.000575904881879429,0.798679172341505,0.00478677497025897,0.01137325,0.00261318163942743,0.171358117086875,2.3575
705,5.99,16.32,334.69,3560,0.0320326314455425,8.31636029860834,0.0601882075995819,0.105407055,0.023141127124573,0.323075923440093,1.2
706,5.99,14.73,298.68,4620,0.203410159610894,11.9011233410766,0.10989562736086,0.2604836,0.0228311709236118,0.213041762447628,2.0025
719,6.54,17.03,208.71,3820,0.0046272070213511,3.33628786605569,0.0293735860176015,0.040948215,0.0241192469279699,0.341544457061386,2.08
720,6.54,27,205.78,3100,0.00355286803527107,3.2543354889303,0.0415498468622143,0.032267555,0.0265040741824789,0.694146141655543,2.2
721,6.54,18.2,192.05,3140,0.0108194353449757,6.99648777076138,0.0413347943565425,0.0562148,0.0234794518647094,0.387280714126118,1.855
722,6.54,18.48,266.01,2400,0.0155078573152731,5.5035604501861,0.0648270377554356,0.05589744,0.0346121740904805,0.56883388441859,1.585
