RSN,Mag,Rrup,Vs30,Z2_5,Ia,CAV,PGV,PGA,PGD,Tm,D595
18869,4.05,32.4,376,824.9,9.8421541236942e-06,0.0349766061645582,0.000417634731127365,0.00134567275,5.70571445377687e-05,0.206938655543758,2.525
18870,4.05,63.54,535.12,666.8,1.37630968967224e-06,0.0130465095009662,0.000169505074828835,0.0005682098,6.63879250004062e-05,0.172337456452126,2.055
18871,4.05,37.61,760,733.1,6.72957774197069e-06,0.0542297679813005,0.000488258877463564,0.0011055145,0.000501355505810719,0.202864287530789,2.7
18885,4.05,75.1,403.94,3559,1.68297330341046e-07,0.00354267052223058,4.60300624405351e-05,0.0001668343,2.03153993556107e-05,0.134660574522246,2
18887,4.05,77.78,652.29,899.5,6.7050326631223e-10,0.00159447105215137,1.18587402735665e-05,1.392214e-05,1.58341088951888e-05,0.38254258217491,2.84
18888,4.05,77.58,627.87,3344.8,4.39369624467115e-07,0.00832734692043486,0.000102002479239536,0.000278504,2.52528761699774e-05,0.194778413491576,2.515
18896,4.05,69.92,686.73,879,2.65721629381274e-06,0.0195009814501012,0.000211036125797735,0.0006148492,0.000114804614367531,0.189941749101753,2.53
18900,4.05,67.8,268.81,849.4,2.0105896898919e-06,0.0178247064418975,0.00020377179798209,0.0006380644,4.55279512433378e-05,0.207039332774294,2.245
18902,4.05,24.02,463.82,860.1,8.22833753011043e-05,0.114665954775999,0.00129571038041453,0.0041180695,0.000658361309473209,0.172576387174841,2.72
18939,3.37,50.62,344.93,849.4,1.02540268992573e-09,0.000288120366629649,3.21273497253976e-06,1.9133875e-05,1.26455487418327e-06,0.150161721493709,2.87
18940,3.37,16.42,263.76,2797.4,9.82762326822554e-06,0.0211827705710535,0.000310102953856675,0.0016570125,4.63628162317172e-05,0.126097125180271,2.08
18941,3.37,23.01,260.78,842,2.17878340893616e-06,0.0104715291907947,0.000157025090056567,0.0007652472,1.74011004090341e-05,0.134358474226034,2.095
18942,3.37,28.07,286.85,872.2,2.08125838412792e-06,0.0159479206562147,0.0001676607847106,0.00059054475,0.00013223968153174,0.138880934991781,2.495
18944,3.37,13.39,363.45,3018.9,1.63086201705297e-05,0.042210130763834,0.000872341037171734,0.0019724085,0.000167922135377193,0.197203544336105,2.515
18945,3.37,21.06,491.77,1321.2,2.12486145220474e-06,0.0354501086550417,0.000178759434279433,0.00060230075,0.000164849785515573,0.130688591120285,2.56
18946,3.37,10.49,519,908.5,0.000116884909489567,0.0687038299956464,0.00174559797057824,0.007039918,0.000242756510313974,0.137589249697339,1.47
18947,3.37,10.48,471,2437,2.34459813872904e-05,0.0579367278152307,0.00131303569875571,0.0025763735,9.96759654723661e-05,0.261517145375821,1.965
18948,3.37,47.15,378,0,5.27983712670373e-08,0.00199438406747193,2.37245855597901e-05,0.00012325072,6.54316739455352e-06,0.141477476717051,2.345
18949,3.37,16.69,258.1,872.1,8.33589399363205e-06,0.0362798096426702,0.000405830531831463,0.00124145805,5.02873028650777e-05,0.137859442511232,1.9
18950,3.37,43.5,517.22,3363.5,2.49478365783101e-07,0.0147790534190877,8.35498436287431e-05,0.0002071869,5.1004917710171e-05,0.193798176708588,2.5
18951,3.37,29.08,285.93,879.6,2.79711049777593e-06,0.0254470655263542,0.00018507561945971,0.00081285505,2.83820808832511e-05,0.137245942298841,2.325
18952,3.37,26.12,351.95,1745.8,7.5017019744893e-05,0.0908505293025059,0.00118383607375391,0.00541883365,0.000146338981495161,0.149447222143165,1.785
18953,3.37,32.86,384.88,1123.1,4.47583539973779e-09,0.00235511431048694,1.03544058737826e-05,4.044559e-05,1.02972742599073e-05,0.184477206155731,2.8175
18954,3.37,52.57,385.47,3323.7,6.63173335050628e-07,0.00833080584058913,0.000100242690043619,0.00040196465,6.05447248660255e-05,0.141381751901015,2.62
18955,3.37,63.04,719.52,694.5,1.0060188266733e-06,0.00466075022359834,7.89474795221705e-05,0.00052284255,2.03262198679223e-05,0.0918480942054951,2.045
18956,3.37,67.98,635.15,796.1,1.5568142554697e-07,0.00266198727645285,3.25489896527889e-05,0.00021508555,2.1692635936963e-05,0.0941223816606312,2.325
18957,3.37,58.02,402.6,1079.3,6.80024384029654e-08,0.00236830230690519,2.96747977367454e-05,0.0001420282,1.73016155030938e-05,0.120369824711725,2.745
18958,3.37,37.75,432,890.3,5.75472702287555e-07,0.00524314219887982,6.72314547934758e-05,0.0004057183,5.21570099518387e-06,0.125587513414372,2.54
18959,3.37,68.5,535.12,666.8,1.517667785436e-07,0.00259223472673265,3.11673920454651e-05,0.00019623085,1.5684441809144e-05,0.109950871246251,2.29
18961,3.22,26.12,261.91,843.3,5.91184117468827e-07,0.00556895945520649,7.03769821222341e-05,0.00026859333,3.60579977014265e-05,0.152147340150832,2.675
18962,3.22,27.86,339.94,851,3.59005115563309e-07,0.00346172689588802,4.57714455476254e-05,0.000280521685,4.7190971695599e-06,0.161939570707576,2.49
18963,3.22,26.67,286.85,872.2,1.59721959318543e-07,0.00454909771947541,4.47565679148302e-05,0.0001714652,3.59949480974806e-05,0.144348543621662,2.455
18964,3.22,15.58,357.28,3344.2,6.62211796472512e-07,0.00905617584679111,0.000262361369596847,0.0004579888,2.16536736330269e-05,0.251493799730665,2.295
18965,3.22,30.01,365.78,3068.1,8.52782131530589e-08,0.00282404056215916,3.81686831965105e-05,0.0001443445,3.38889350282119e-06,0.176218697255239,2.65
18966,3.22,28.69,347.55,3547.6,1.72594281951747e-07,0.00396001432563022,4.99236770015951e-05,0.00021164735,1.23914179897405e-05,0.150241705935864,2.35
18967,3.22,13.66,363.45,3018.9,2.50157610048957e-05,0.0527232574879868,0.00205765697423055,0.0044945705,0.000293029955545357,0.477569203517092,1.295
18968,3.22,27.01,258.1,842,6.28434466806046e-07,0.00392284784349516,5.57689399033131e-05,0.00044808545,6.32610241177869e-06,0.106806644683078,2.38
18969,3.22,26.55,275.34,1445,6.38267154263508e-07,0.00522075949153535,5.66617750239207e-05,0.00026298731,9.99539054704724e-06,0.11707258520644,2.63
18970,3.22,25.02,284.38,3331.7,2.3715381717842e-08,0.00128984418168317,1.42337376074103e-05,6.260086e-05,7.29485550065233e-06,0.140692634179184,2.61
18971,3.22,15.82,491.77,1321.2,9.22616693292657e-06,0.055080964412295,0.000910579463739582,0.002641445,0.000168010042575733,0.244341847968828,1.58
18972,3.22,69.61,613.05,881.1,1.38030650061111e-07,0.0022328721320152,3.45152346182825e-05,0.0002132178,7.63327608672986e-06,0.106051767799958,1.84
18973,3.22,10.12,519,908.5,9.13530907840543e-05,0.0634825152033806,0.000973629584848509,0.004626714,0.00011850188093424,0.136691291415095,2.59
18974,3.22,29.36,391.84,3373.7,6.02906166834469e-08,0.00306591017558694,4.26899719558959e-05,0.00011983714,1.67553706114998e-05,0.20158337123266,2.3
18975,3.22,15.43,471,2437,5.91542109160467e-06,0.0218227104458686,0.000318928462748724,0.0013344455,0.000102897657727539,0.147783738388084,2.645
18976,3.22,31.49,397.99,2728.4,3.9799361942812e-07,0.00946438894814618,6.70725916885374e-05,0.0003379176,5.85430318169831e-06,0.134272700088821,2.41
18977,3.22,26.33,351.95,1745.8,5.80507503661493e-07,0.0123501292673382,7.29451525126041e-05,0.0003359159,5.86263523357831e-06,0.14582977336636,2.5975
18978,3.22,51.96,653.94,784.3,5.43235539994917e-08,0.00151283003881776,2.710511970216e-05,0.0001432607,5.57064975032227e-06,0.116873833632981,2.715
18979,3.22,35.54,432,890.3,2.06988517311291e-07,0.00239966206522154,4.05929392513209e-05,0.0002824891,3.79511541891037e-06,0.103641194548424,2.325
19000,4.07,75.32,473,4260,2.74708359002474e-08,0.00167770295016804,2.4041128342372e-05,8.364239e-05,3.86129189730761e-06,0.196306858209496,1.585
19001,4.07,58.43,376,5380,3.0978413386086e-07,0.00415712655765826,6.09047622878621e-05,0.00028115095,2.09241158523916e-05,0.125576309401827,2.14
19002,4.07,57.21,527.95,320,1.11391410585938e-07,0.00242092865473268,3.45516837874507e-05,0.0001477568,2.54774475856272e-05,0.119047394997938,2.50625
19003,4.07,64.95,308,260,5.56429080132259e-08,0.00246296431753837,2.53026682488949e-05,9.539248e-05,1.08754865293976e-05,0.159497390615882,2.495
19004,4.07,20.24,300,800,3.6105400924341e-06,0.0191044039771477,0.000233173242083333,0.0008170602,9.62301044642468e-05,0.154872767074692,2.57
19006,3.5,53.13,473,4260,1.27854932357713e-08,0.000793297685497337,1.11476889313185e-05,5.4453425e-05,3.24460701603711e-06,0.11781431281141,2.34
19007,3.5,45.16,376,5380,1.41279633498098e-07,0.00253512011111708,4.18887037406794e-05,0.00019550585,1.14461337764199e-05,0.116838864524277,2.285
19008,3.5,49.29,527.95,320,1.98663569020517e-08,0.00133602917037151,1.64012217415454e-05,5.6020015e-05,1.42711530481848e-05,0.136726723203262,2.6875
19009,3.5,73.58,308,260,1.1589236100442e-08,0.000924699322959976,1.68699864987558e-05,5.922099e-05,2.72039179754866e-06,0.162223320595228,1.55
19010,3.5,11.76,300,800,0.000253151993511562,0.111063968191905,0.00258212550248231,0.009781679,0.000276935632746474,0.161093532528704,2.085
19035,4.39,20.42,623.84,240,5.55753741883566e-05,0.0970962204720414,0.00244152274797056,0.004785419,0.000598927819845908,0.276334675845469,2.58
19037,4.39,48.97,517,260,1.12220327334409e-05,0.0190293679366506,0.000361399226970982,0.002005171,7.52043960434812e-05,0.107553224828349,2.025
19038,4.39,48.09,382.19,280,3.17441041193558e-05,0.0776297423023918,0.00101225322162975,0.0026353795,0.000371078456044061,0.227890916302211,2.345
19039,4.39,49.17,376,5380,1.73533658961251e-05,0.0528656882626977,0.000613109548498014,0.001887851,0.000370641709167545,0.185450280058835,2.685
19040,4.39,65.36,308,260,4.20772104799021e-07,0.0101573296405604,0.000103467551566999,0.00029556495,7.78728266102969e-05,0.200164868586057,2.385
19042,4.39,57.2,560,280,7.1996722623698e-05,0.0713007775228674,0.00101899682826019,0.00397044,0.000231856157038097,0.147502910610347,2.305
19043,4.39,8.37,300,800,0.0913388789230993,4.00713374162861,0.0790065800910756,0.1684509,0.0063687611561603,0.339725828178825,1.145
19044,4.39,55.49,818,240,7.865367145486e-07,0.00870089987148174,0.000133386547662888,0.00056563325,2.25621754423827e-05,0.180064291661306,1.72
19045,4.39,21.7,649.14,300,7.92301093654028e-05,0.134045226400108,0.00141961192557927,0.003420311,0.00102572998857916,0.211626937745885,2.695
19059,4,8.57,486,1318.23426265803,0.00344918223410197,0.317327511048413,0.00488436311064886,0.034352305,0.000394985475594964,0.117899962026716,2.3
19060,4,61.11,600,840.2,9.58444482662836e-08,0.00321756934520333,4.35208324119396e-05,0.00014134285,1.82228339987269e-05,0.151905170812576,2.41
19061,4,72.41,400,1696.6,1.0264104701007e-07,0.0061580582491081,6.71587564862838e-05,0.000112365475,2.18792022680561e-05,0.274260209698832,2.41
19062,4,39.59,396.89,240,1.04617617849777e-06,0.00593953012289247,6.34546451517494e-05,0.00043923345,2.75660687770771e-05,0.102018432634736,2.665
19063,4,41.92,646,1589.9,3.27868984728394e-07,0.0141406039748535,0.000120780240944512,0.00028931835,0.000110567298982159,0.302731512817797,2.4
19064,4,34.81,316.33,721.7,1.94104036015139e-06,0.0163413343353898,0.000156696520087064,0.00090947545,0.000123724620676085,0.101580283983324,2.62
19065,4,54.42,323,726.8,2.0475160268786e-07,0.00712789009490068,8.02287386429648e-05,0.00019883815,3.84381103060078e-05,0.18927747915828,2.625
19066,4,65.37,477,798.8,3.94160196676694e-06,0.0215320397292245,0.000198535699220448,0.0010116448,0.00016668158006384,0.138402517932327,2.435
19069,4,16.73,643.8,726,0.000395996118451094,0.0906667695406225,0.00237731219268156,0.011199104,0.000243567157013366,0.123082652785608,1.225
19077,3.6,26.27,285,2161.82951223022,1.3579727456042e-06,0.0100702126202315,0.000120193449309855,0.0004812625,2.631800229615e-05,0.135765150355592,2.42
19078,3.6,9.18,486,1318.23426265803,0.00127205579388571,0.27863620271295,0.00615254182394351,0.019479195,0.000461943533602697,0.183000966391296,2.13
19080,3.6,39.91,396.89,240,2.08131802340262e-07,0.00269000594564309,4.31105928252527e-05,0.0002346536,1.28426985202937e-05,0.105084943608347,2.415
19081,3.6,41.6,646,1589.9,9.45490587232683e-08,0.00471152488116861,5.72098651502101e-05,0.0001455134,2.51726782671495e-05,0.237735524234711,2.32
19082,3.6,34.64,316.33,721.7,5.42523491505785e-07,0.00598760136467149,9.6981211577677e-05,0.0004214311,2.66389724043342e-05,0.144954034100912,2.105
19083,3.6,60.71,433.15,1069.3,5.53179227918333e-08,0.00342226264027542,4.0987217672006e-05,0.000106323055,1.00560763775431e-05,0.244268528335085,1.82
19084,3.6,54.21,323,726.8,5.52951022076212e-08,0.00232948785865658,2.99653829184154e-05,0.000102728175,5.56186407827858e-06,0.171440591414249,2.395
19087,3.6,65.06,477,798.8,1.04818696421539e-06,0.00928983312843536,0.000142626926647825,0.000477819,1.64720422429319e-05,0.161131196052434,1.965
19092,3.6,36.51,686.73,879,8.77191998994403e-07,0.00985879766593807,0.000124096859208454,0.00043053405,2.2194059455263e-05,0.186922401429742,2.27
19096,3.6,16.61,643.8,726,5.19703031919447e-05,0.0257464734697524,0.000611676145185508,0.0044014405,0.000121285848362174,0.0960394090773368,1.01875
19099,3.6,24.14,274.67,2129.2,4.47068232495803e-06,0.04398205054887,0.000281276854554835,0.00100753515,9.31380403589664e-05,0.171326221404794,2.205
19100,3.55,26.72,285,2161.82951223022,2.88867032391319e-06,0.0168667110571917,0.000177576189855989,0.0006381337,0.000135024946319236,0.128303233065677,2.4
19101,3.55,7.22,486,1318.23426265803,0.00165577977871762,0.264903931948563,0.00475819033579986,0.03097057,0.000454921198443635,0.143086747856926,2.18
19102,3.55,39.24,396.89,240,1.21856184447923e-07,0.00412307784015957,3.82987676997397e-05,0.00015646935,4.01424850244494e-05,0.107835694770825,2.785
19103,3.55,33.14,316.33,721.7,3.31860389685338e-08,0.00166742019740991,1.97076716739767e-05,9.467865e-05,5.49104006291885e-06,0.156762342428224,2.245
19104,3.55,63.99,477,798.8,6.61702125309615e-08,0.00185231226502268,2.38945594023101e-05,7.688401e-05,5.11263931647196e-06,0.207780721480713,2.47
19105,3.55,35.75,686.73,879,1.5117001373179e-09,0.000157912482034852,1.39685272296518e-06,1.79362e-05,1.53967745017307e-06,0.057756168537693,2.905
19106,3.55,14.57,643.8,726,2.28493340942534e-06,0.00634803539705465,0.000161644735862228,0.001454438,1.72358884871604e-05,0.100548733408389,1.7
19107,3.55,22.82,274.67,2129.2,2.4368110481352e-07,0.010072668650752,6.94995890675656e-05,0.0001958473,2.57220766432976e-05,0.16604994559019,2.7225
19108,3.54,27.67,285,2161.82951223022,4.65777464942925e-07,0.00616915587463588,6.92630251658348e-05,0.0002999865,2.68425088863448e-05,0.157783186050955,2.685
19109,3.54,9.1,486,1318.23426265803,0.000680329363746009,0.176018883187219,0.00284862385404956,0.014290925,0.000101476885290769,0.148582515888095,2.355
19111,3.54,39.54,396.89,240,1.76820579673041e-07,0.00337030344614286,4.12143313405469e-05,0.00021128355,3.07914875485604e-05,0.0958880087914707,2.855
19112,3.54,15.19,643.8,726,3.86147726631515e-05,0.0190759112647712,0.000626044948860755,0.0049100395,8.41777067674801e-05,0.0910334942643421,1.225
19113,3.54,23.22,274.67,2129.2,4.82144032130812e-06,0.0333906922893981,0.000247516859019444,0.001133496,8.12647650733159e-05,0.122212555165637,2.17
19114,3.54,33.23,316.33,721.7,5.71341054153254e-07,0.00709726975641806,0.000109376050175064,0.0005913809,5.29241907385141e-05,0.108419843985919,2.14
19115,3.54,52.85,323,726.8,4.65252648339258e-08,0.00168490730997102,2.19543502692982e-05,0.0001086969,1.07050437258625e-05,0.109017350477846,2.57
19119,3.54,73.86,760,733.1,5.79966410257911e-08,0.00199202852384821,2.57778119838219e-05,9.922387e-05,8.68089963510427e-06,0.131359676172512,2.29
19122,3.54,36.07,686.73,879,3.31837525870071e-07,0.00848076102780096,8.20789681087591e-05,0.00026669065,5.91377455522814e-05,0.172830912120394,2.405
19127,3.7,28.07,285,2161.82951223022,4.56599216531144e-07,0.00616700194546478,7.01248681350504e-05,0.00029602215,2.64510400389345e-05,0.158128624816489,2.685
19128,3.7,9.49,486,1318.23426265803,0.000610305420971146,0.175510000574492,0.00281416517667168,0.013867635,9.87041254723892e-05,0.150996739253629,2.335
19130,3.7,39.69,396.89,240,4.47320905386319e-06,0.01423968026348,0.000337233076319091,0.00133907595,9.50943740869718e-05,0.114276149943592,1.82
19131,3.7,32.65,316.33,721.7,5.70921431014935e-07,0.00706197711420351,0.000109335329875169,0.00059113455,5.27341416316806e-05,0.108424212497301,2.14
19132,3.7,52.23,323,726.8,4.69297280965993e-08,0.00178085245724823,2.2369533674114e-05,0.0001096626,1.26128349200675e-05,0.109389052990346,2.575
19136,3.7,73.2,760,733.1,5.79990687179336e-08,0.00199135933330155,2.57600379798693e-05,9.9189375e-05,8.67125463287246e-06,0.131359991259585,2.29
19139,3.7,35.62,686.73,879,3.32255975731288e-07,0.00523265407662322,7.54362510971128e-05,0.0002711983,9.18286589702727e-06,0.167526475552023,2.28
19142,3.7,14.65,643.8,726,3.93249555097552e-05,0.0207515352895869,0.000679543064193684,0.004899018,0.000104829498047478,0.0909844643072667,1.2875
19144,3.7,22.66,274.67,2129.2,4.82109715039432e-06,0.0333749117947723,0.000247431024969357,0.00113355785,8.07029731424001e-05,0.122216384756913,2.17
19145,3.9,57.73,600,840.2,3.1852782487246e-08,0.0017427403658713,1.98921392975235e-05,4.93358505e-05,7.84182988292859e-06,0.250050682525577,2.445
19147,3.9,38.65,646,1589.9,8.75548949097975e-08,0.00511947451475326,5.99971221052892e-05,0.000134461,1.4658459971071e-05,0.251099304385454,2.46
19148,3.9,31.17,316.33,721.7,1.3853466344369e-06,0.0112701754369215,0.000178081266583167,0.00078223265,7.328362514772e-05,0.135982164427571,2.36
19151,3.9,50.8,323,726.8,1.27010446972141e-07,0.00403288695335548,5.38482142748756e-05,0.0001835327,2.22041495033311e-05,0.169390960514297,2.455
19155,3.9,61.82,477,798.8,8.78459574907319e-07,0.0118089826420737,0.000134711436085574,0.00041448625,6.80662944088173e-05,0.166988875222902,2.12
19157,3.9,71.75,760,733.1,1.84605952885814e-07,0.00479607284509375,5.42992725317185e-05,0.00020076145,2.58532492322168e-05,0.169348755340094,2.13
19160,3.9,34.59,686.73,879,5.97458796540474e-07,0.00889144659898502,8.89253216541369e-05,0.0003383947,2.02830677752467e-05,0.192906475143661,2.445
19161,3.9,12.95,643.8,726,0.000134415040209778,0.052377439187644,0.00125644381827166,0.0080009055,0.000316685870548689,0.0983062151887489,1.55625
19165,3.9,21.23,274.67,2129.2,9.32867024950532e-06,0.0466264781866438,0.000332485420433672,0.001490634,9.31700353006622e-05,0.129434107886647,2.0675
19166,3.8,29.2,285,2161.82951223022,6.14506957952173e-07,0.00871772031015548,0.00010210689430536,0.00032087735,3.83724995349238e-05,0.170643306314786,2.63
19167,3.8,9.66,486,1318.23426265803,0.00066362166741635,0.176576473395935,0.00212489967299059,0.015826975,0.00017748239813653,0.123548835149727,2.435
19168,3.8,57.74,600,840.2,1.94551617518296e-10,0.000432027572621385,3.9115883011231e-06,5.9375995e-06,3.31816496400724e-06,0.33581730609438,2.65
19169,3.8,39.52,396.89,240,2.39400282538972e-07,0.00446903250763909,5.61853894454457e-05,0.00025988115,3.21401329985416e-05,0.129276228035122,2.47
19170,3.8,38.68,646,1589.9,2.41516073267263e-08,0.00164331062812892,2.46768314661921e-05,6.2684315e-05,1.10787982458553e-05,0.235678856803055,2.665
19171,3.8,31.05,316.33,721.7,7.71575151572999e-07,0.00753085164758604,0.000120376267414174,0.00054733785,4.05895052484777e-05,0.133293773476342,2.305
19175,3.8,61.8,477,798.8,5.25964663289691e-07,0.00688822916830688,7.47628885980555e-05,0.00029424515,3.15623664810838e-05,0.139414302478949,2.39
19176,3.8,71.7,760,733.1,4.93964516875057e-08,0.00170139419379611,2.19550046900985e-05,6.7089737e-05,7.51175578931241e-06,0.252371556562581,2.45
19177,3.8,34.72,686.73,879,5.44613317629614e-07,0.00779551935445159,8.44673864735979e-05,0.0002777217,3.76005145155079e-05,0.170872416506631,2.48
19179,3.8,12.86,643.8,726,9.48105568554738e-05,0.0355543865366808,0.000893007721447986,0.0067571185,0.000140602651895364,0.0976491313588857,1.65625
19182,3.8,21.28,274.67,2129.2,3.58946026841717e-06,0.0286253833596785,0.000193311078341427,0.00089719235,2.89679366305669e-05,0.133081909513336,2.375
19190,3.8,27.76,285,2161.82951223022,2.38965783952535e-06,0.0151143196384162,0.000180923661484916,0.0007444987,9.90823501331697e-05,0.138580661519925,2.525
